IRIDIUM 26              
1 24903U 97043A   25200.42294541  .00000238  00000+0  73365-4 0  9991
2 24903  86.3947  97.0817 0002143  79.9952 280.1487 14.37164223461846
IRIDIUM 22              
1 24907U 97043E   25199.82196662  .00000222  00000+0  69628-4 0  9991
2 24907  86.3955 100.9018 0002097  85.0702 275.0734 14.35974046461315
DUMMY MASS 1            
1 24925U 97048A   25200.31467513  .00000314  00000+0  31913-4 0  9997
2 24925  86.3364 120.4798 0008251  47.2178 312.9740 14.87006520510140
DUMMY MASS 2            
1 24926U 97048B   25200.21487313  .00000325  00000+0  33291-4 0  9990
2 24926  86.3367 122.1391 0009332  55.5102 304.7003 14.86758502509908
IRIDIUM 29              
1 24944U 97051A   25200.18193358  .00000303  00000+0  96756-4 0  9994
2 24944  86.3985 130.4839 0002262  90.5310 269.6146 14.36487854458081
IRIDIUM 33              
1 24946U 97051C   25200.19887664  .00000248  00000+0  80283-4 0  9993
2 24946  86.3901 129.7398 0007330 350.7010   9.4049 14.34908384457345
IRIDIUM 28              
1 24948U 97051E   25200.20493511  .00000268  00000+0  83216-4 0  9992
2 24948  86.3989 127.9723 0002166  72.2401 287.9032 14.37403393458515
IRIDIUM 36              
1 24967U 97056C   25199.60645751  .00000320  00000+0  10007-3 0  9990
2 24967  86.4008 159.8088 0002020  84.9077 275.2351 14.37628742456738
